ONEWEB-0331             
1 49198U 21083N   25362.50107756  .00001239  00000+0  31097-2 0  9990
2 49198  87.9174   9.3411 0001794 105.2483 254.8847 13.18681133207519
ONEWEB-0333             
1 49199U 21083P   25362.50235507  .00000249  00000+0  64680-3 0  9992
2 49199  87.8967 354.1737 0001819  87.1757 272.9580 13.13469155208509
ONEWEB-0334             
1 49200U 21083Q   25362.38673137  .00000022  00000+0  20995-4 0  9997
2 49200  87.9214 308.5254 0002166  53.3660 306.7673 13.20772418214243
ONEWEB-0335             
1 49201U 21083R   25362.49727885  .00000146  00000+0  36480-3 0  9992
2 49201  87.8974 354.1633 0001837  93.2480 266.8860 13.13469381208512
ONEWEB-0336             
1 49202U 21083S   25362.46848686 -.00000214  00000+0 -62224-3 0  9996
2 49202  87.8975 354.1663 0001854 101.1966 258.9372 13.13468025208507
ONEWEB-0337             
1 49203U 21083T   25362.24998242 -.00000264  00000+0 -75901-3 0  9998
2 49203  87.8976 354.2212 0001604  93.1536 266.9776 13.13470007208472
ONEWEB-0338             
1 49204U 21083U   25362.28573387  .00000152  00000+0  34206-3 0  9999
2 49204  87.9211 308.5492 0001847  68.5624 291.5706 13.20771602214254
ONEWEB-0339             
1 49205U 21083V   25362.48711741 -.00000102  00000+0 -31495-3 0  9994
2 49205  87.8978 354.1568 0001661  84.6770 275.4548 13.13469765208489
